{
    "links": {
        "self": "http://www.neowsapp.com/rest/v1/neo/3766344?api_key=iIulBulltgU6a56xZRHN4H3l9WmuAYTsLGpBGhQ2"
    },
    "id": "3766344",
    "neo_reference_id": "3766344",
    "name": "(2016 YC13)",
    "designation": "2016 YC13",
    "nasa_jpl_url": "http://ssd.jpl.nasa.gov/sbdb.cgi?sstr=3766344",
    "absolute_magnitude_h": 26.707,
    "estimated_diameter": {
        "kilometers": {
            "estimated_diameter_min": 0.0121103021,
            "estimated_diameter_max": 0.0270794587
        },
        "meters": {
            "estimated_diameter_min": 12.1103020874,
            "estimated_diameter_max": 27.0794586954
        },
        "miles": {
            "estimated_diameter_min": 0.0075249905,
            "estimated_diameter_max": 0.0168263903
        },
        "feet": {
            "estimated_diameter_min": 39.7319635004,
            "estimated_diameter_max": 88.8433712663
        }
    },
    "is_potentially_hazardous_asteroid": false,
    "close_approach_data": [
        {
            "close_approach_date": "1985-01-03",
            "close_approach_date_full": "1985-Jan-03 05:15",
            "epoch_date_close_approach": 473577300000,
            "relative_velocity": {
                "kilometers_per_second": "11.2213032651",
                "kilometers_per_hour": "40396.6917542034",
                "miles_per_hour": "25100.9332736049"
            },
            "miss_distance": {
                "astronomical": "0.1338700451",
                "lunar": "52.0754475439",
                "kilometers": "20026673.603763937",
                "miles": "12443997.9415268506"
            },
            "orbiting_body": "Venus"
        },
        {
            "close_approach_date": "2016-12-21",
            "close_approach_date_full": "2016-Dec-21 20:56",
            "epoch_date_close_approach": 1482353760000,
            "relative_velocity": {
                "kilometers_per_second": "13.3029491678",
                "kilometers_per_hour": "47890.6170039814",
                "miles_per_hour": "29757.3669933905"
            },
            "miss_distance": {
                "astronomical": "0.0149810028",
                "lunar": "5.8276100892",
                "kilometers": "2241126.109344036",
                "miles": "1392571.1899622568"
            },
            "orbiting_body": "Earth"
        }
    ],
    "orbital_data": {
        "orbit_id": "2",
        "orbit_determination_date": "2017-04-06 08:21:14",
        "first_observation_date": "2016-12-27",
        "last_observation_date": "2016-12-27",
        "data_arc_in_days": null,
        "observations_used": 19,
        "orbit_uncertainty": "9",
        "minimum_orbit_intersection": ".0096243",
        "jupiter_tisserand_invariant": "4.481",
        "epoch_osculation": "2457749.5",
        "eccentricity": ".472086547695608",
        "semi_major_axis": "1.466479449287624",
        "inclination": "4.781799068910447",
        "ascending_node_longitude": "275.8754799814125",
        "orbital_period": "648.6529519264011",
        "perihelion_distance": ".7741742288068733",
        "perihelion_argument": "102.7532973017142",
        "aphelion_distance": "2.158784669768375",
        "perihelion_time": "2457696.334515547147",
        "mean_anomaly": "29.50664811774223",
        "mean_motion": ".5549963180324",
        "equinox": "J2000",
        "orbit_class": {
            "orbit_class_type": "APO",
            "orbit_class_description": "Near-Earth asteroid orbits which cross the Earth’s orbit similar to that of 1862 Apollo",
            "orbit_class_range": "a (semi-major axis) > 1.0 AU; q (perihelion) < 1.017 AU"
        }
    },
    "is_sentry_object": false
}